     2.11           N: GPS NAV DATA                         RINEX VERSION / TYPE
teqc  2016Apr1      IGN                 20231129 19:30:02UTCPGM / RUN BY / DATE
    18                                                      LEAP SECONDS
    2.9802D-08  7.4506D-09 -1.1921D-07  1.1921D-07          ION ALPHA
    1.4950D+05 -1.8022D+05  0.0000D+00  1.3107D+05          ION BETA
    2.793967723846D-09 7.105427357601D-15   503808     2290 DELTA-UTC: A0,A1,T,W
                                                            END OF HEADER
21 23 11 29 13 59 44.0 1.429668627679D-04-1.023181539495D-12 0.000000000000D+00
    4.000000000000D+00-1.843750000000D+01 4.605191824724D-09 2.321960412137D+00
   -1.028180122375D-06 2.496729267295D-02-1.395121216774D-06 5.153751688004D+03
    3.095840000000D+05 2.402812242508D-07-1.094209736399D+00 2.980232238770D-07
    9.617272168274D-01 4.073437500000D+02-6.780360523860D-01-8.220699567991D-09
   -2.632252501025D-10 1.000000000000D+00 2.290000000000D+03 0.000000000000D+00
    2.000000000000D+00 0.000000000000D+00-1.024454832077D-08 4.000000000000D+00
    3.024180000000D+05 4.000000000000D+00
 5 23 11 29 14  0  0.0-1.522228121758D-04-1.477928890381D-12 0.000000000000D+00
    9.100000000000D+01-1.206875000000D+02 4.050883184448D-09 2.647488515963D+00
   -6.319954991341D-06 5.855493713170D-03 8.199363946915D-06 5.153772373199D+03
    3.096000000000D+05 2.793967723846D-08-5.494252171942D-03-6.519258022308D-08
    9.691337925868D-01 2.275312500000D+02 1.238353683613D+00-7.649604505389D-09
    7.857470230022D-11 1.000000000000D+00 2.290000000000D+03 0.000000000000D+00
    2.000000000000D+00 0.000000000000D+00-1.117587089539D-08 9.100000000000D+01
    3.024300000000D+05
15 23 11 29 14  0  0.0 1.019421033561D-04 3.751665644813D-12 0.000000000000D+00
    6.600000000000D+01-2.128125000000D+01 5.274862768800D-09 1.289467855512D+00
   -1.162290573120D-06 1.546112634242D-02 9.421259164810D-06 5.153574068069D+03
    3.096000000000D+05-3.539025783539D-07 9.416348152811D-01-1.676380634308D-07
    9.336628333875D-01 1.886250000000D+02 1.276126848697D+00-8.327489808835D-09
    5.732381791468D-10 1.000000000000D+00 2.290000000000D+03 0.000000000000D+00
    2.000000000000D+00 0.000000000000D+00-1.024454832077D-08 6.600000000000D+01
    3.024300000000D+05
30 23 11 29 14  0  0.0-4.630303010345D-04 4.206412995700D-12 0.000000000000D+00
    9.500000000000D+01-8.875000000000D+00 5.514158463171D-09-6.214438140407D-01
   -5.271285772324D-07 6.607942050323D-03 5.476176738739D-06 5.153718748093D+03
    3.096000000000D+05 5.587935447693D-08 2.140666040659D+00 1.005828380585D-07
    9.350981169443D-01 2.585000000000D+02-2.552701876977D+00-8.400706796863D-09
   -2.825117639826D-10 1.000000000000D+00 2.290000000000D+03 0.000000000000D+00
    2.000000000000D+00 0.000000000000D+00 3.725290298462D-09 9.500000000000D+01
    3.024300000000D+05
17 23 11 29 14  0  0.0 7.227160967886D-04-4.547473508865D-13 0.000000000000D+00
    1.040000000000D+02 1.429687500000D+02 3.929092162736D-09 2.358259864269D+00
    7.394701242447D-06 1.382783963345D-02 4.138797521591D-06 5.153631423950D+03
    3.096000000000D+05 1.452863216400D-07-1.991779333513D+00-1.303851604462D-08
    9.715403396405D-01 2.979687500000D+02-1.368844598215D+00-7.726750794745D-09
    1.110760580736D-10 1.000000000000D+00 2.290000000000D+03 0.000000000000D+00
    2.800000000000D+00 0.000000000000D+00-1.117587089539D-08 1.040000000000D+02
    3.024300000000D+05
22 23 11 29 14  0  0.0 7.506599649787D-05-6.934897101019D-12 0.000000000000D+00
    9.600000000000D+01 7.075000000000D+01 4.009809817518D-09 2.895830089278D+00
    3.775581717491D-06 1.492997747846D-02 1.104362308979D-05 5.153732465744D+03
    3.096000000000D+05 9.872019290924D-08-3.009560054474D+00 1.043081283569D-07
    9.631421599712D-01 1.651875000000D+02-1.160278354296D+00-7.338877061613D-09
   -5.728810203998D-10 1.000000000000D+00 2.290000000000D+03 0.000000000000D+00
    2.000000000000D+00 0.000000000000D+00-1.117587089539D-08 9.600000000000D+01
    3.024300000000D+05
24 23 11 29 14  0  0.0-3.823759034276D-04-8.526512829121D-12 0.000000000000D+00
    1.020000000000D+02-2.656250000000D+00 5.728809870931D-09 5.124606361910D-01
    2.607703208923D-08 1.491910405457D-02 5.327165126801D-06 5.153615070343D+03
    3.096000000000D+05-1.080334186554D-07 2.043421040986D+00 1.359730958939D-07
    9.335343569959D-01 2.621875000000D+02 9.473657046928D-01-8.702862430710D-09
   -2.850118752118D-10 1.000000000000D+00 2.290000000000D+03 0.000000000000D+00
    2.000000000000D+00 0.000000000000D+00 2.328306436539D-09 1.020000000000D+02
    3.024300000000D+05
14 23 11 29 14  0  0.0 2.569062635303D-04 1.068656274583D-11 0.000000000000D+00
    1.900000000000D+02 5.525000000000D+01 4.508045048368D-09-1.244581821806D+00
    2.853572368622D-06 3.720724605955D-03 1.069530844688D-05 5.153681427002D+03
    3.096000000000D+05-1.490116119385D-08-3.072487480042D+00-1.471489667892D-07
    9.475946279655D-01 1.698125000000D+02-2.955606329324D+00-7.768537813035D-09
   -5.546659798128D-10 1.000000000000D+00 2.290000000000D+03 0.000000000000D+00
    2.000000000000D+00 0.000000000000D+00-7.916241884232D-09 9.580000000000D+02
    3.024300000000D+05
20 23 11 29 14  0  0.0 3.991746343672D-04-1.932676241267D-12 0.000000000000D+00
    8.200000000000D+01-1.239062500000D+02 4.509473683356D-09 9.641805377610D-01
   -6.625428795815D-06 4.081050399691D-03 6.996095180511D-06 5.153667356491D+03
    3.096000000000D+05-5.215406417847D-08-1.311257947157D-01 5.960464477539D-08
    9.516228782269D-01 2.417812500000D+02-2.747474950971D+00-8.032477794018D-09
   -1.928651682803D-11 1.000000000000D+00 2.290000000000D+03 0.000000000000D+00
    2.000000000000D+00 0.000000000000D+00-8.381903171539D-09 8.200000000000D+01
    3.024300000000D+05
 7 23 11 29 14  0  0.0 8.903443813324D-07-9.777068044059D-12 0.000000000000D+00
    6.100000000000D+01-6.750000000000D+00 5.298435024059D-09-5.307489305890D-01
   -2.346932888031D-07 1.767428743187D-02 5.675479769707D-06 5.153686145782D+03
    3.096000000000D+05-8.754432201385D-08 2.137350597231D+00 2.495944499969D-07
    9.499627924377D-01 2.648750000000D+02-2.164568123728D+00-8.490353309298D-09
   -2.953694511199D-10 1.000000000000D+00 2.290000000000D+03 0.000000000000D+00
    2.000000000000D+00 0.000000000000D+00-1.117587089539D-08 6.100000000000D+01
    3.024300000000D+05
13 23 11 29 14  0  0.0 6.004371680319D-04 3.979039320257D-12 0.000000000000D+00
    4.100000000000D+01-2.281250000000D+00 4.490186888972D-09 1.973864081762D+00
   -1.434236764908D-07 7.717954926193D-03 7.823109626770D-06 5.153659259796D+03
    3.096000000000D+05-1.639127731323D-07 1.228093956780D+00-1.788139343262D-07
    9.701820845723D-01 2.337187500000D+02 9.538707191499D-01-7.746751684579D-09
    5.868101560225D-10 1.000000000000D+00 2.290000000000D+03 0.000000000000D+00
    2.000000000000D+00 0.000000000000D+00-1.117587089539D-08 4.100000000000D+01
    3.024300000000D+05
23 23 11 29 14  0  0.0 1.072115264833D-04 6.593836587854D-12 0.000000000000D+00
    5.300000000000D+01-1.204687500000D+02 3.924806257771D-09-7.563504473863D-01
   -6.286427378654D-06 3.884968347847D-03 8.596107363701D-06 5.153699304581D+03
    3.096000000000D+05 7.450580596924D-08 1.278226427261D-02-3.352761268616D-08
    9.769766266094D-01 2.203125000000D+02-3.027017597193D+00-7.677820157426D-09
    9.571827358501D-11 1.000000000000D+00 2.290000000000D+03 0.000000000000D+00
    2.000000000000D+00 0.000000000000D+00-8.381903171539D-09 5.650000000000D+02
    3.024300000000D+05
19 23 11 29 14  0  0.0 4.055835306644D-04 5.229594535194D-12 0.000000000000D+00
    1.080000000000D+02 1.251875000000D+02 4.114099727559D-09-1.874920559590D+00
    6.634742021561D-06 9.366879938170D-03 4.395842552185D-06 5.153670213699D+03
    3.096000000000D+05-2.123415470123D-07-1.947332072826D+00 1.117587089539D-08
    9.706435679321D-01 3.018750000000D+02 2.452841194407D+00-8.028905540414D-09
    2.528676712465D-10 1.000000000000D+00 2.290000000000D+03 0.000000000000D+00
    2.000000000000D+00 0.000000000000D+00-1.536682248116D-08 1.080000000000D+02
    3.024600000000D+05
12 23 11 29 14  0  0.0-4.521715454757D-04-3.979039320257D-12 0.000000000000D+00
    6.300000000000D+01 6.528125000000D+01 4.223033034378D-09-1.204356729949D+00
    3.382563591003D-06 8.763521676883D-03 1.015886664391D-05 5.153757699966D+03
    3.096000000000D+05-4.097819328308D-08-3.030911662757D+00 2.495944499969D-07
    9.642691847449D-01 1.867187500000D+02 1.397071280712D+00-7.758894859933D-09
   -5.082354537222D-10 1.000000000000D+00 2.290000000000D+03 0.000000000000D+00
    2.000000000000D+00 0.000000000000D+00-1.257285475731D-08 6.300000000000D+01
    3.046200000000D+05
18 23 11 29 14  0  0.0-4.927134141326D-04-1.045918907039D-11 0.000000000000D+00
    8.000000000000D+00-5.400000000000D+01 4.314822721341D-09 2.534734445864D-01
   -2.760440111160D-06 3.832337562926D-03 6.146728992462D-07 5.153642538071D+03
    3.096000000000D+05 8.568167686462D-08-9.870634116559D-01 0.000000000000D+00
    9.742870531836D-01 3.734062500000D+02-3.029921404731D+00-8.275701901539D-09
   -5.785955395354D-11 1.000000000000D+00 2.290000000000D+03 0.000000000000D+00
    2.000000000000D+00 0.000000000000D+00-8.381903171539D-09 2.640000000000D+02
    3.024300000000D+05
10 23 11 29 14  0  0.0-6.330851465464D-05-1.477928890381D-12 0.000000000000D+00
    7.100000000000D+01-1.380625000000D+02 3.662295406447D-09-1.933559478845D+00
   -7.286667823792D-06 9.143241448328D-03 8.923932909966D-06 5.153695983887D+03
    3.096000000000D+05 8.195638656616D-08 4.088308461315D-02-7.264316082001D-08
    9.818365999268D-01 2.135312500000D+02-2.420179286616D+00-7.475668534458D-09
    2.053656971627D-10 1.000000000000D+00 2.290000000000D+03 0.000000000000D+00
    2.800000000000D+00 0.000000000000D+00 2.328306436539D-09 7.100000000000D+01
    3.024180000000D+05 4.000000000000D+00
